{"type": "FeatureCollection", "features": [{"type": "Feature", "properties": {"norad_id": 28890, "name": "BEIJING 1", "group": "dmc", "lat": -14.660443430812261, "lon": 117.54835788944044, "alt_km": 696.608199020081, "timestamp": "2025-12-13T20:38:50.661723+00:00", "meta": {"OBJECT_NAME": "BEIJING 1", "OBJECT_ID": "2005-043A", "EPOCH": "2025-12-13T07:35:12.824160", "MEAN_MOTION": 14.63367913, "ECCENTRICITY": 0.00153486, "INCLINATION": 98.265, "RA_OF_ASC_NODE": 114.8238, "ARG_OF_PERICENTER": 139.4874, "MEAN_ANOMALY": 220.7473, "EPHEMERIS_TYPE": 0, "CLASSIFICATION_TYPE": "U", "NORAD_CAT_ID": 28890, "ELEMENT_SET_NO": 999, "REV_AT_EPOCH": 7346, "BSTAR": 0.00016915304, "MEAN_MOTION_DOT": 8.27e-06, "MEAN_MOTION_DDOT": 0}, "tle": {"line1": "1 28890U 05043A   25347.31612065  .00000827  00000+0  16915-3 0  9995", "line2": "2 28890  98.2650 114.8238 0015348 139.4874 220.7473 14.63367913 73461"}}, "geometry": {"type": "Point", "coordinates": [117.54835788944044, -14.660443430812261]}}, {"type": "Feature", "properties": {"norad_id": 33320, "name": "HUANJING 1A (HJ-1A)", "group": "dmc", "lat": 81.53994679396034, "lon": -139.1751779393295, "alt_km": 604.7469934513856, "timestamp": "2025-12-13T20:38:50.661752+00:00", "meta": {"OBJECT_NAME": "HUANJING 1A (HJ-1A)", "OBJECT_ID": "2008-041A", "EPOCH": "2025-12-13T07:16:38.373888", "MEAN_MOTION": 14.83398099, "ECCENTRICITY": 0.00200719, "INCLINATION": 97.6544, "RA_OF_ASC_NODE": 335.5783, "ARG_OF_PERICENTER": 32.5253, "MEAN_ANOMALY": 327.7194, "EPHEMERIS_TYPE": 0, "CLASSIFICATION_TYPE": "U", "NORAD_CAT_ID": 33320, "ELEMENT_SET_NO": 999, "REV_AT_EPOCH": 93084, "BSTAR": 0.00032134814, "MEAN_MOTION_DOT": 2.595e-05, "MEAN_MOTION_DDOT": 0}, "tle": {"line1": "1 33320U 08041A   25347.30322192  .00002595  00000+0  32135-3 0  9994", "line2": "2 33320  97.6544 335.5783 0020071  32.5253 327.7194 14.83398099930843"}}, "geometry": {"type": "Point", "coordinates": [-139.1751779393295, 81.53994679396034]}}, {"type": "Feature", "properties": {"norad_id": 33321, "name": "HUANJING 1B (HJ-1B)", "group": "dmc", "lat": -47.71847393136778, "lon": -11.704821642989254, "alt_km": 640.6563770206367, "timestamp": "2025-12-13T20:38:50.661767+00:00", "meta": {"OBJECT_NAME": "HUANJING 1B (HJ-1B)", "OBJECT_ID": "2008-041B", "EPOCH": "2025-12-13T06:17:21.259968", "MEAN_MOTION": 14.82824604, "ECCENTRICITY": 0.00381571, "INCLINATION": 97.6403, "RA_OF_ASC_NODE": 339.2345, "ARG_OF_PERICENTER": 74.047, "MEAN_ANOMALY": 286.4943, "EPHEMERIS_TYPE": 0, "CLASSIFICATION_TYPE": "U", "NORAD_CAT_ID": 33321, "ELEMENT_SET_NO": 999, "REV_AT_EPOCH": 93085, "BSTAR": 0.00032822487, "MEAN_MOTION_DOT": 2.638e-05, "MEAN_MOTION_DDOT": 0}, "tle": {"line1": "1 33321U 08041B   25347.26205162  .00002638  00000+0  32822-3 0  9998", "line2": "2 33321  97.6403 339.2345 0038157  74.0470 286.4943 14.82824604930858"}}, "geometry": {"type": "Point", "coordinates": [-11.704821642989254, -47.71847393136778]}}, {"type": "Feature", "properties": {"norad_id": 33446, "name": "YAOGAN-4", "group": "dmc", "lat": -42.7039525956938, "lon": 90.56878689884233, "alt_km": 628.5584675835835, "timestamp": "2025-12-13T20:38:50.661779+00:00", "meta": {"OBJECT_NAME": "YAOGAN-4", "OBJECT_ID": "2008-061A", "EPOCH": "2025-12-13T06:41:08.234592", "MEAN_MOTION": 14.8268628, "ECCENTRICITY": 0.00135434, "INCLINATION": 97.9181, "RA_OF_ASC_NODE": 277.3727, "ARG_OF_PERICENTER": 321.4814, "MEAN_ANOMALY": 38.5431, "EPHEMERIS_TYPE": 0, "CLASSIFICATION_TYPE": "U", "NORAD_CAT_ID": 33446, "ELEMENT_SET_NO": 999, "REV_AT_EPOCH": 91811, "BSTAR": 0.00032331381, "MEAN_MOTION_DOT": 2.558e-05, "MEAN_MOTION_DDOT": 0}, "tle": {"line1": "1 33446U 08061A   25347.27856753  .00002558  00000+0  32331-3 0  9993", "line2": "2 33446  97.9181 277.3727 0013543 321.4814  38.5431 14.82686280918110"}}, "geometry": {"type": "Point", "coordinates": [90.56878689884233, -42.7039525956938]}}, {"type": "Feature", "properties": {"norad_id": 35681, "name": "DEIMOS-1", "group": "dmc", "lat": -37.790760744859156, "lon": 154.44515969026241, "alt_km": 652.5531933495013, "timestamp": "2025-12-13T20:38:50.661791+00:00", "meta": {"OBJECT_NAME": "DEIMOS-1", "OBJECT_ID": "2009-041A", "EPOCH": "2025-12-13T07:47:41.943264", "MEAN_MOTION": 14.74954265, "ECCENTRICITY": 0.00027458, "INCLINATION": 97.7151, "RA_OF_ASC_NODE": 147.9007, "ARG_OF_PERICENTER": 79.152, "MEAN_ANOMALY": 280.9999, "EPHEMERIS_TYPE": 0, "CLASSIFICATION_TYPE": "U", "NORAD_CAT_ID": 35681, "ELEMENT_SET_NO": 999, "REV_AT_EPOCH": 87948, "BSTAR": 0.00018147471, "MEAN_MOTION_DOT": 1.172e-05, "MEAN_MOTION_DDOT": 0}, "tle": {"line1": "1 35681U 09041A   25347.32479101  .00001172  00000+0  18147-3 0  9999", "line2": "2 35681  97.7151 147.9007 0002745  79.1520 280.9999 14.74954265879484"}}, "geometry": {"type": "Point", "coordinates": [154.44515969026241, -37.790760744859156]}}, {"type": "Feature", "properties": {"norad_id": 35683, "name": "UK-DMC 2", "group": "dmc", "lat": -20.224837531399647, "lon": 125.64639253218691, "alt_km": 648.8426221091786, "timestamp": "2025-12-13T20:38:50.661803+00:00", "meta": {"OBJECT_NAME": "UK-DMC 2", "OBJECT_ID": "2009-041C", "EPOCH": "2025-12-13T07:43:13.486368", "MEAN_MOTION": 14.7562331, "ECCENTRICITY": 0.00014506, "INCLINATION": 97.8559, "RA_OF_ASC_NODE": 122.2074, "ARG_OF_PERICENTER": 97.3112, "MEAN_ANOMALY": 262.8263, "EPHEMERIS_TYPE": 0, "CLASSIFICATION_TYPE": "U", "NORAD_CAT_ID": 35683, "ELEMENT_SET_NO": 999, "REV_AT_EPOCH": 87915, "BSTAR": 0.0002004774, "MEAN_MOTION_DOT": 1.319e-05, "MEAN_MOTION_DDOT": 0}, "tle": {"line1": "1 35683U 09041C   25347.32168387  .00001319  00000+0  20048-3 0  9998", "line2": "2 35683  97.8559 122.2074 0001450  97.3112 262.8263 14.75623310879152"}}, "geometry": {"type": "Point", "coordinates": [125.64639253218691, -20.224837531399647]}}, {"type": "Feature", "properties": {"norad_id": 40715, "name": "DMC3-FM1", "group": "dmc", "lat": 66.96719030480281, "lon": -163.46606423830164, "alt_km": 606.8587696090244, "timestamp": "2025-12-13T20:38:50.661814+00:00", "meta": {"OBJECT_NAME": "DMC3-FM1", "OBJECT_ID": "2015-032A", "EPOCH": "2025-12-13T07:24:29.062080", "MEAN_MOTION": 14.85440591, "ECCENTRICITY": 0.00046615, "INCLINATION": 97.669, "RA_OF_ASC_NODE": 214.4803, "ARG_OF_PERICENTER": 318.9665, "MEAN_ANOMALY": 41.12, "EPHEMERIS_TYPE": 0, "CLASSIFICATION_TYPE": "U", "NORAD_CAT_ID": 40715, "ELEMENT_SET_NO": 999, "REV_AT_EPOCH": 56231, "BSTAR": 0.00012483428, "MEAN_MOTION_DOT": 1.025e-05, "MEAN_MOTION_DDOT": 0}, "tle": {"line1": "1 40715U 15032A   25347.30866970  .00001025  00000+0  12483-3 0  9996", "line2": "2 40715  97.6690 214.4803 0004661 318.9665  41.1200 14.85440591562319"}}, "geometry": {"type": "Point", "coordinates": [-163.46606423830164, 66.96719030480281]}}, {"type": "Feature", "properties": {"norad_id": 40716, "name": "DMC3-FM2", "group": "dmc", "lat": -51.44625324960561, "lon": -133.80231517461752, "alt_km": 615.6025388841072, "timestamp": "2025-12-13T20:38:50.661825+00:00", "meta": {"OBJECT_NAME": "DMC3-FM2", "OBJECT_ID": "2015-032B", "EPOCH": "2025-12-13T06:19:52.635360", "MEAN_MOTION": 14.85444009, "ECCENTRICITY": 0.0005237, "INCLINATION": 97.6747, "RA_OF_ASC_NODE": 215.8814, "ARG_OF_PERICENTER": 324.2232, "MEAN_ANOMALY": 35.8632, "EPHEMERIS_TYPE": 0, "CLASSIFICATION_TYPE": "U", "NORAD_CAT_ID": 40716, "ELEMENT_SET_NO": 999, "REV_AT_EPOCH": 56230, "BSTAR": 0.00019657605, "MEAN_MOTION_DOT": 1.643e-05, "MEAN_MOTION_DDOT": 0}, "tle": {"line1": "1 40716U 15032B   25347.26380365  .00001643  00000+0  19658-3 0  9998", "line2": "2 40716  97.6747 215.8814 0005237 324.2232  35.8632 14.85444009562306"}}, "geometry": {"type": "Point", "coordinates": [-133.80231517461752, -51.44625324960561]}}, {"type": "Feature", "properties": {"norad_id": 40717, "name": "DMC3-FM3", "group": "dmc", "lat": -12.372776524374528, "lon": 36.394085044406616, "alt_km": 618.8884551558222, "timestamp": "2025-12-13T20:38:50.661835+00:00", "meta": {"OBJECT_NAME": "DMC3-FM3", "OBJECT_ID": "2015-032C", "EPOCH": "2025-12-13T06:51:01.140768", "MEAN_MOTION": 14.8543444, "ECCENTRICITY": 0.00045779, "INCLINATION": 97.6803, "RA_OF_ASC_NODE": 217.5359, "ARG_OF_PERICENTER": 327.1585, "MEAN_ANOMALY": 32.9345, "EPHEMERIS_TYPE": 0, "CLASSIFICATION_TYPE": "U", "NORAD_CAT_ID": 40717, "ELEMENT_SET_NO": 999, "REV_AT_EPOCH": 56231, "BSTAR": 0.00019619531, "MEAN_MOTION_DOT": 1.639e-05, "MEAN_MOTION_DDOT": 0}, "tle": {"line1": "1 40717U 15032C   25347.28542987  .00001639  00000+0  19620-3 0  9995", "line2": "2 40717  97.6803 217.5359 0004577 327.1585  32.9345 14.85434440562310"}}, "geometry": {"type": "Point", "coordinates": [36.394085044406616, -12.372776524374528]}}]}